NORAD_CAT_ID,OBJECT_NAME,OBJECT_TYPE,EPOCH,MEAN_MOTION,ECCENTRICITY,INCLINATION,RA_OF_ASC_NODE,ARG_OF_PERICENTER,MEAN_ANOMALY,BSTAR,MEAN_MOTION_DOT,MEAN_MOTION_DDOT,TLE_LINE0,TLE_LINE1,TLE_LINE2,SEMIMAJOR_AXIS,PERIOD,APOGEE,PERIGEE,DECAYED
52499.0,STARLINK-3894,PAYLOAD,2022-12-04 18:00:32,15.08851643,0.00035,53.2191,355.4703,20.3017,339.8114,-5.6887e-05,-1.195e-05,0.0,0 STARLINK-3894,1 52499U 22049BA  22338.75038146 -.00001195  00000-0 -56887-4 0  9994,2 52499  53.2191 355.4703 0003500  20.3017 339.8114 15.08851643 32601,6917.845,95.437,542.131,537.289,0.0
52499.0,STARLINK-3894,PAYLOAD,2022-12-05 01:57:28,15.08841608,0.000353,53.2191,353.9834,21.2504,338.8634,0.00013877,1.921e-05,0.0,0 STARLINK-3894,1 52499U 22049BA  22339.08158451  .00001921  00000-0  13877-3 0  9999,2 52499  53.2191 353.9834 0003530  21.2504 338.8634 15.08841608 32812,6917.875,95.437,542.182,537.298,0.0
52499.0,STARLINK-3894,PAYLOAD,2022-12-05 09:54:24,15.08846283,0.0003523999999999,53.2197,352.4969,22.8484,337.2665,4.069e-05,3.59e-06,0.0,0 STARLINK-3894,1 52499U 22049BA  22339.41278482  .00000359  00000-0  40690-4 0  9991,2 52499  53.2197 352.4969 0003524  22.8484 337.2665 15.08846283 32707,6917.861,95.437,542.164,537.288,0.0
52499.0,STARLINK-3894,PAYLOAD,2022-12-05 17:51:19,15.08854499,0.0002973,53.2194,351.0099,22.6282,337.4841,1.6294e-07,-2.86e-06,0.0,0 STARLINK-3894,1 52499U 22049BA  22339.74397753 -.00000286  00000-0  16294-6 0  9995,2 52499  53.2194 351.0099 0002973  22.6282 337.4841 15.08854499 32913,6917.8359999999975,95.437,541.758,537.644,0.0
52499.0,STARLINK-3894,PAYLOAD,2022-12-06 01:48:15,15.08839164,0.0003596,53.2198,349.5229,21.8349,338.2795,0.0001655,2.346e-05,0.0,0 STARLINK-3894,1 52499U 22049BA  22340.07518518  .00002346  00000-0  16550-3 0  9997,2 52499  53.2198 349.5229 0003596  21.8349 338.2795 15.08839164 32965,6917.8830000000025,95.438,542.236,537.26,0.0
52499.0,STARLINK-3894,PAYLOAD,2022-12-06 08:09:48,15.0884618,0.0003647,53.2191,348.3332,21.6527,338.4619,0.00011805,1.591e-05,0.0,0 STARLINK-3894,1 52499U 22049BA  22340.34014162  .00001591  00000-0  11805-3 0  9992,2 52499  53.2191 348.3332 0003647  21.6527 338.4619 15.08846180 32843,6917.861,95.437,542.249,537.2040000000002,0.0
52499.0,STARLINK-3894,PAYLOAD,2022-12-06 17:42:08,15.08833958,0.000373,53.2197,346.5494,22.5473,337.5683,-1.7399e-05,-5.66e-06,0.0,0 STARLINK-3894,1 52499U 22049BA  22340.73759403 -.00000566  00000-0 -17399-4 0  9997,2 52499  53.2197 346.5494 0003730  22.5473 337.5683 15.08833958 32908,6917.899,95.438,542.344,537.183,0.0
52499.0,STARLINK-3894,PAYLOAD,2022-12-07 17:32:54,15.08844939,0.0003816,53.2188,342.0886,22.9629,337.1533,5.1666e-05,5.34e-06,0.0,0 STARLINK-3894,1 52499U 22049BA  22341.73118866  .00000534  00000-0  51666-4 0  9998,2 52499  53.2188 342.0886 0003816  22.9629 337.1533 15.08844939 33212,6917.865,95.437,542.37,537.09,0.0
52499.0,STARLINK-3894,PAYLOAD,2022-12-08 09:26:45,15.08847167,0.0003901,53.2173,339.1162,17.2307,342.8817,0.00029187,4.361e-05,0.0,0 STARLINK-3894,1 52499U 22049BA  22342.39358587  .00004361  00000-0  29187-3 0  9991,2 52499  53.2173 339.1162 0003901  17.2307 342.8817 15.08847167 33152,6917.858,95.437,542.422,537.025,0.0
52499.0,STARLINK-3894,PAYLOAD,2022-12-08 17:23:40,15.088525400000002,0.0003476,53.2175,337.6305,15.8144,344.2956,0.00032097,4.825e-05,0.0,0 STARLINK-3894,1 52499U 22049BA  22342.72478006  .00004825  00000-0  32097-3 0  9996,2 52499  53.2175 337.6305 0003476  15.8144 344.2956 15.08852540 33203,6917.842,95.437,542.112,537.302,0.0
52499.0,STARLINK-3894,PAYLOAD,2022-12-09 10:52:54,15.08864609,0.0003095,53.2168,334.3616,354.6886,5.4073,0.00041015,6.25e-05,0.0,0 STARLINK-3894,1 52499U 22049BA  22343.45340812  .00006250  00000-0  41015-3 0  9994,2 52499  53.2168 334.3616 0003095 354.6886   5.4073 15.08864609 33315,6917.805,95.436,541.811,537.529,0.0
52499.0,STARLINK-3894,PAYLOAD,2022-12-09 17:14:33,15.08681326,0.0004792,53.2169,333.1724,305.9246,54.1301,-0.002674,-0.00042424,0.0,0 STARLINK-3894,1 52499U 22049BA  22343.71843977 -.00042424  00000-0 -26740-2 0  9995,2 52499  53.2169 333.1724 0004792 305.9246  54.1301 15.08681326 33517,6918.365,95.448,543.5459999999998,536.915,0.0
52499.0,STARLINK-3894,PAYLOAD,2022-12-10 05:57:33,15.08836958,0.0003391,53.2171,330.7944,11.2766,348.8302,-4.5927e-05,-1.02e-05,0.0,0 STARLINK-3894,1 52499U 22049BA  22344.24830803 -.00001020  00000-0 -45927-4 0  9995,2 52499  53.2171 330.7944 0003391  11.2766 348.8302 15.08836958 33590,6917.89,95.438,542.101,537.409,0.0
52499.0,STARLINK-3894,PAYLOAD,2022-12-10 10:43:43,15.08835502,0.000379,53.2171,329.9014,7.1343,352.9702,-3.3184e-05,-8.17e-06,0.0,0 STARLINK-3894,1 52499U 22049BA  22344.44702939 -.00000817  00000-0 -33184-4 0  9990,2 52499  53.2171 329.9014 0003790   7.1343 352.9702 15.08835502 33466,6917.894,95.438,542.381,537.137,0.0
52499.0,STARLINK-3894,PAYLOAD,2022-12-11 08:59:07,15.08842124,0.0003587,53.2185,325.7349,22.5796,337.5353,9.5524e-05,1.232e-05,0.0,0 STARLINK-3894,1 52499U 22049BA  22345.37439144  .00001232  00000-0  95524-4 0  9994,2 52499  53.2185 325.7349 0003587  22.5796 337.5353 15.08842124 33765,6917.874,95.437,542.22,537.257,0.0
52499.0,STARLINK-3894,PAYLOAD,2022-12-12 02:28:24,15.08790631,0.0003035,53.2181,322.4631,352.7557,7.3391,0.0019534,0.00030897,0.0,0 STARLINK-3894,1 52499U 22049BA  22346.10306353  .00030897  00000-0  19534-2 0  9995,2 52499  53.2181 322.4631 0003035 352.7557   7.3391 15.08790631 33871,6918.031,95.441,541.996,537.797,0.0
52499.0,STARLINK-3894,PAYLOAD,2022-12-12 08:49:54,15.088362300000002,0.0003776,53.218,321.2737,22.2354,337.8801,4.6174e-05,4.46e-06,0.0,0 STARLINK-3894,1 52499U 22049BA  22346.36799663  .00000446  00000-0  46174-4 0  9992,2 52499  53.2180 321.2737 0003776  22.2354 337.8801 15.08836230 33918,6917.892,95.438,542.369,537.145,0.0
52499.0,STARLINK-3894,PAYLOAD,2022-12-13 08:40:41,15.08841813,0.000386,53.2181,316.8133,23.9694,336.1477,0.00010592,1.397e-05,0.0,0 STARLINK-3894,1 52499U 22049BA  22347.36159502  .00001397  00000-0  10592-3 0  9995,2 52499  53.2181 316.8133 0003860  23.9694 336.1477 15.08841813 33901,6917.875,95.437,542.41,537.07,0.0
52499.0,STARLINK-3894,PAYLOAD,2022-12-14 03:45:19,15.08832086,0.0003838,53.2185,313.2444,24.6423,335.4752,-9.905e-05,-1.865e-05,0.0,0 STARLINK-3894,1 52499U 22049BA  22348.15648122 -.00001865  00000-0 -99050-4 0  9993,2 52499  53.2185 313.2444 0003838  24.6423 335.4752 15.08832086 34185,6917.905,95.438,542.425,537.114,0.0
52499.0,STARLINK-3894,PAYLOAD,2022-12-14 10:06:52,15.08835889,0.0003793,53.2193,312.0541,25.3819,334.7358,-1.5388e-05,-5.34e-06,0.0,0 STARLINK-3894,1 52499U 22049BA  22348.42144485 -.00000534  00000-0 -15388-4 0  9990,2 52499  53.2193 312.0541 0003793  25.3819 334.7358 15.08835889 34061,6917.893,95.438,542.382,537.134,0.0
52499.0,STARLINK-3894,PAYLOAD,2022-12-14 22:49:57,15.08844188,0.0003365,53.2181,309.6756,22.2781,337.8357,0.00011911,1.608e-05,0.0,0 STARLINK-3894,1 52499U 22049BA  22348.95135618  .00001608  00000-0  11911-3 0  9994,2 52499  53.2181 309.6756 0003365  22.2781 337.8357 15.08844188 34309,6917.868,95.437,542.06,537.405,0.0
52499.0,STARLINK-3894,PAYLOAD,2022-12-15 09:57:39,15.08839786,0.000396,53.218,307.5954,23.391,336.7261,0.00010077,1.315e-05,0.0,0 STARLINK-3894,1 52499U 22049BA  22349.41504123  .00001315  00000-0  10077-3 0  9994,2 52499  53.2180 307.5954 0003960  23.3910 336.7261 15.08839786 34212,6917.880999999999,95.438,542.486,537.007,0.0
52499.0,STARLINK-3894,PAYLOAD,2022-12-15 14:43:49,15.0883945,0.0003774,53.2175,306.7037,22.2662,337.8493,0.00011649,1.566e-05,0.0,0 STARLINK-3894,1 52499U 22049BA  22349.61376171  .00001566  00000-0  11649-3 0  9990,2 52499  53.2175 306.7037 0003774  22.2662 337.8493 15.08839450 34402,6917.882,95.438,542.3580000000002,537.136,0.0
52499.0,STARLINK-3894,PAYLOAD,2022-12-15 21:05:21,15.08842634,0.0003506,53.2176,305.5132,21.8529,338.2612,0.00020684,3.005e-05,0.0,0 STARLINK-3894,1 52499U 22049BA  22349.87872018  .00003005  00000-0  20684-3 0  9998,2 52499  53.2176 305.5132 0003506  21.8529 338.2612 15.08842634 34288,6917.871999999999,95.437,542.163,537.312,0.0
52499.0,STARLINK-3894,PAYLOAD,2022-12-16 06:37:39,15.08850422,0.0003734,53.2176,303.7303,20.8645,339.2499,0.00030874,4.63e-05,0.0,0 STARLINK-3894,1 52499U 22049BA  22350.27615700  .00004630  00000-0  30874-3 0  9994,2 52499  53.2176 303.7303 0003734  20.8645 339.2499 15.08850422 34502,6917.849,95.437,542.297,537.13,0.0
52499.0,STARLINK-3894,PAYLOAD,2022-12-16 20:56:08,15.08841,0.0003775,53.2171,301.0545,19.4457,340.6679,4.4314e-05,4.16e-06,0.0,0 STARLINK-3894,1 52499U 22049BA  22350.87231945  .00000416  00000-0  44314-4 0  9998,2 52499  53.2171 301.0545 0003775  19.4457 340.6679 15.08841000 34593,6917.877,95.437,542.354,537.131,0.0
52499.0,STARLINK-3894,PAYLOAD,2022-12-17 03:17:41,15.08834604,0.0003687,53.2184,299.8640000000001,21.4877,338.6269999999999,1.8917e-05,1.2e-07,0.0,0 STARLINK-3894,1 52499U 22049BA  22351.13728529  .00000012  00000-0  18917-4 0  9999,2 52499  53.2184 299.8640 0003687  21.4877 338.6270 15.08834604 34639,6917.897,95.438,542.313,537.211,0.0
52499.0,STARLINK-3894,PAYLOAD,2022-12-17 08:03:50,15.08840035,0.0003676,53.2185,298.9716,22.6922,337.4232,4.6557e-05,4.52e-06,0.0,0 STARLINK-3894,1 52499U 22049BA  22351.33600077  .00000452  00000-0  46557-4 0  9997,2 52499  53.2185 298.9716 0003676  22.6922 337.4232 15.08840035 34502,6917.88,95.438,542.288,537.202,0.0
52499.0,STARLINK-3894,PAYLOAD,2022-12-18 06:19:14,15.08845578,0.0003673,53.2186,294.809,22.4521,337.6631,-0.00025107,-4.284e-05,0.0,0 STARLINK-3894,1 52499U 22049BA  22352.26336549 -.00004284  00000-0 -25107-3 0  9996,2 52499  53.2186 294.8090 0003673  22.4521 337.6631 15.08845578 34640,6917.863,95.437,542.269,537.187,0.0
